start=new Date('2022-06-06T00:00:00.000Z').valueOf();
sats=[{"SITE":"AFETR","TIME_SYSTEM":"UTC","CLASSIFICATION_TYPE":"U","OBJECT_TYPE":"PAYLOAD","RA_OF_ASC_NODE":"70.2128","OBJECT_NAME":"STARLINK-1233","COUNTRY_CODE":"US","CENTER_NAME":"EARTH","ARG_OF_PERICENTER":"55.4895","EPOCH":"2022-06-05T16:47:54.091104","ELEMENT_SET_NO":"999","GP_ID":"205443153","APOAPSIS":"548.505","ECCENTRICITY":"0.00018580","EPHEMERIS_TYPE":"0","MEAN_MOTION_DOT":"-0.00000941","BSTAR":"-0.00004428200000","NORAD_CAT_ID":"45214","OBJECT_ID":"2020-012AN","PERIAPSIS":"545.932","MEAN_ANOMALY":"304.6270","SEMIMAJOR_AXIS":"6925.353","TLE_LINE2":"2 45214  53.0552  70.2128 0001858  55.4895 304.6270 15.06398446128173","INCLINATION":"53.0552","MEAN_ELEMENT_THEORY":"SGP4","TLE_LINE1":"1 45214U 20012AN  22156.69993161 -.00000941  00000-0 -44282-4 0  9991","MEAN_MOTION":"15.06398446","DECAY_DATE":null,"REF_FRAME":"TEME","LAUNCH_DATE":"2020-02-17","PERIOD":"95.592","REV_AT_EPOCH":"12817","MEAN_MOTION_DDOT":"0.0000000000000","RCS_SIZE":"LARGE","FILE":"3482995"},{"REF_FRAME":"TEME","LAUNCH_DATE":"2020-02-17","PERIOD":"95.593","MEAN_MOTION_DDOT":"0.0000000000000","REV_AT_EPOCH":"12808","RCS_SIZE":"LARGE","FILE":"3482995","TLE_LINE2":"2 45215  53.0555  71.1188 0001760  54.3754 305.7399 15.06393711128081","INCLINATION":"53.0555","MEAN_ELEMENT_THEORY":"SGP4","TLE_LINE1":"1 45215U 20012AP  22156.49721422 -.00000495  00000-0 -14319-4 0  9991","MEAN_MOTION":"15.06393711","DECAY_DATE":null,"PERIAPSIS":"546.014","OBJECT_ID":"2020-012AP","MEAN_ANOMALY":"305.7399","SEMIMAJOR_AXIS":"6925.368","MEAN_MOTION_DOT":"-0.00000495","EPHEMERIS_TYPE":"0","BSTAR":"-0.00001431900000","NORAD_CAT_ID":"45215","ELEMENT_SET_NO":"999","GP_ID":"205443403","ECCENTRICITY":"0.00017600","APOAPSIS":"548.452","EPOCH":"2022-06-05T11:55:59.308608","COUNTRY_CODE":"US","CENTER_NAME":"EARTH","ARG_OF_PERICENTER":"54.3754","SITE":"AFETR","TIME_SYSTEM":"UTC","CLASSIFICATION_TYPE":"U","RA_OF_ASC_NODE":"71.1188","OBJECT_TYPE":"PAYLOAD","OBJECT_NAME":"STARLINK-1245"},{"EPOCH":"2022-06-05T03:21:07.278048","ELEMENT_SET_NO":"999","ECCENTRICITY":"0.00017540","APOAPSIS":"548.447","GP_ID":"205444654","TIME_SYSTEM":"UTC","SITE":"AFETR","OBJECT_TYPE":"PAYLOAD","RA_OF_ASC_NODE":"72.7312","OBJECT_NAME":"STARLINK-1271","CLASSIFICATION_TYPE":"U","CENTER_NAME":"EARTH","COUNTRY_CODE":"US","ARG_OF_PERICENTER":"57.1917","TLE_LINE2":"2 45217  53.0561  72.7312 0001754  57.1917 302.9241 15.06394036128098","INCLINATION":"53.0561","DECAY_DATE":null,"MEAN_ELEMENT_THEORY":"SGP4","TLE_LINE1":"1 45217U 20012AR  22156.13966757  .00001708  00000-0  13355-3 0  9990","MEAN_MOTION":"15.06394036","PERIOD":"95.593","REF_FRAME":"TEME","LAUNCH_DATE":"2020-02-17","RCS_SIZE":"LARGE","FILE":"3482995","MEAN_MOTION_DDOT":"0.0000000000000","REV_AT_EPOCH":"12809","BSTAR":"0.00013355000000","NORAD_CAT_ID":"45217","MEAN_MOTION_DOT":"0.00001708","EPHEMERIS_TYPE":"0","PERIAPSIS":"546.017","OBJECT_ID":"2020-012AR","SEMIMAJOR_AXIS":"6925.367","MEAN_ANOMALY":"302.9241"},{"ECCENTRICITY":"0.00019950","APOAPSIS":"548.611","GP_ID":"205444905","ELEMENT_SET_NO":"999","EPOCH":"2022-06-05T16:02:47.747616","ARG_OF_PERICENTER":"63.5640","CENTER_NAME":"EARTH","COUNTRY_CODE":"US","OBJECT_NAME":"STARLINK-1187","RA_OF_ASC_NODE":"50.3530","OBJECT_TYPE":"PAYLOAD","CLASSIFICATION_TYPE":"U","TIME_SYSTEM":"UTC","SITE":"AFETR","FILE":"3482995","RCS_SIZE":"LARGE","MEAN_MOTION_DDOT":"0.0000000000000","REV_AT_EPOCH":"12846","PERIOD":"95.592","LAUNCH_DATE":"2020-02-17","REF_FRAME":"TEME","DECAY_DATE":null,"TLE_LINE1":"1 45219U 20012AT  22156.66860819 -.00000070  00000-0  14210-4 0  9996","MEAN_MOTION":"15.06394936","MEAN_ELEMENT_THEORY":"SGP4","INCLINATION":"53.0572","TLE_LINE2":"2 45219  53.0572  50.3530 0001995  63.5640 296.5553 15.06394936128461","SEMIMAJOR_AXIS":"6925.364","MEAN_ANOMALY":"296.5553","OBJECT_ID":"2020-012AT","PERIAPSIS":"545.847","NORAD_CAT_ID":"45219","BSTAR":"0.00001421000000","EPHEMERIS_TYPE":"0","MEAN_MOTION_DOT":"-0.00000070"},{"CLASSIFICATION_TYPE":"U","OBJECT_NAME":"STARLINK-1189","RA_OF_ASC_NODE":"49.7522","OBJECT_TYPE":"PAYLOAD","SITE":"AFETR","TIME_SYSTEM":"UTC","ARG_OF_PERICENTER":"64.8905","COUNTRY_CODE":"US","CENTER_NAME":"EARTH","EPOCH":"2022-06-05T19:19:10.198560","GP_ID":"205443653","APOAPSIS":"548.354","ECCENTRICITY":"0.00016300","ELEMENT_SET_NO":"999","EPHEMERIS_TYPE":"0","MEAN_MOTION_DOT":"0.00001575","NORAD_CAT_ID":"45221","BSTAR":"0.00012463000000","MEAN_ANOMALY":"295.2253","SEMIMAJOR_AXIS":"6925.360","OBJECT_ID":"2020-012AV","PERIAPSIS":"546.096","TLE_LINE1":"1 45221U 20012AV  22156.80497915  .00001575  00000-0  12463-3 0  9995","MEAN_MOTION":"15.06396307","MEAN_ELEMENT_THEORY":"SGP4","DECAY_DATE":null,"INCLINATION":"53.0551","TLE_LINE2":"2 45221  53.0551  49.7522 0001630  64.8905 295.2253 15.06396307128476","REV_AT_EPOCH":"12847","MEAN_MOTION_DDOT":"0.0000000000000","FILE":"3482995","RCS_SIZE":"LARGE","LAUNCH_DATE":"2020-02-17","REF_FRAME":"TEME","PERIOD":"95.592"},{"COUNTRY_CODE":"US","CENTER_NAME":"EARTH","ARG_OF_PERICENTER":"55.7765","SITE":"AFETR","TIME_SYSTEM":"UTC","CLASSIFICATION_TYPE":"U","OBJECT_NAME":"STARLINK-1191","OBJECT_TYPE":"PAYLOAD","RA_OF_ASC_NODE":"49.6973","ELEMENT_SET_NO":"999","GP_ID":"205443903","APOAPSIS":"548.472","ECCENTRICITY":"0.00017930","EPOCH":"2022-06-05T19:29:47.694048","OBJECT_ID":"2020-012AW","PERIAPSIS":"545.989","MEAN_ANOMALY":"304.3394","SEMIMAJOR_AXIS":"6925.365","MEAN_MOTION_DOT":"0.00000016","EPHEMERIS_TYPE":"0","NORAD_CAT_ID":"45222","BSTAR":"0.00001998000000","LAUNCH_DATE":"2020-02-17","REF_FRAME":"TEME","PERIOD":"95.592","REV_AT_EPOCH":"12847","MEAN_MOTION_DDOT":"0.0000000000000","FILE":"3482995","RCS_SIZE":"LARGE","INCLINATION":"53.0550","TLE_LINE2":"2 45222  53.0550  49.6973 0001793  55.7765 304.3394 15.06394517128477","MEAN_MOTION":"15.06394517","TLE_LINE1":"1 45222U 20012AW  22156.81235757  .00000016  00000-0  19980-4 0  9992","MEAN_ELEMENT_THEORY":"SGP4","DECAY_DATE":null},{"EPOCH":"2022-06-05T21:37:10.184448","ELEMENT_SET_NO":"999","ECCENTRICITY":"0.00018290","APOAPSIS":"548.464","GP_ID":"205444155","TIME_SYSTEM":"UTC","SITE":"AFETR","OBJECT_NAME":"STARLINK-1212","RA_OF_ASC_NODE":"49.3224","OBJECT_TYPE":"PAYLOAD","CLASSIFICATION_TYPE":"U","CENTER_NAME":"EARTH","COUNTRY_CODE":"US","ARG_OF_PERICENTER":"52.3346","INCLINATION":"53.0545","TLE_LINE2":"2 45223  53.0545  49.3224 0001829  52.3346 307.7808 15.06405385128491","DECAY_DATE":null,"MEAN_MOTION":"15.06405385","TLE_LINE1":"1 45223U 20012AX  22156.90081232  .00000755  00000-0  69592-4 0  9994","MEAN_ELEMENT_THEORY":"SGP4","PERIOD":"95.592","LAUNCH_DATE":"2020-02-17","REF_FRAME":"TEME","FILE":"3482995","RCS_SIZE":"LARGE","MEAN_MOTION_DDOT":"0.0000000000000","REV_AT_EPOCH":"12849","NORAD_CAT_ID":"45223","BSTAR":"0.00006959200000","EPHEMERIS_TYPE":"0","MEAN_MOTION_DOT":"0.00000755","OBJECT_ID":"2020-012AX","PERIAPSIS":"545.930","SEMIMAJOR_AXIS":"6925.332","MEAN_ANOMALY":"307.7808"},{"GP_ID":"205418543","ECCENTRICITY":"0.00089860","APOAPSIS":"243.926","ELEMENT_SET_NO":"999","EPOCH":"2022-06-05T16:58:48.994464","ARG_OF_PERICENTER":"338.4078","COUNTRY_CODE":"US","CENTER_NAME":"EARTH","CLASSIFICATION_TYPE":"U","RA_OF_ASC_NODE":"231.8414","OBJECT_TYPE":"PAYLOAD","OBJECT_NAME":"STARLINK-1214","SITE":"AFETR","TIME_SYSTEM":"UTC","REV_AT_EPOCH":"13000","MEAN_MOTION_DDOT":"0.0205410000000","RCS_SIZE":"LARGE","FILE":"3482754","REF_FRAME":"TEME","LAUNCH_DATE":"2020-02-17","PERIOD":"89.262","MEAN_ELEMENT_THEORY":"SGP4","TLE_LINE1":"1 45224U 20012AY  22156.70751151  .03213816  20541-1  33980-2 0  9997","MEAN_MOTION":"16.13236821","DECAY_DATE":null,"TLE_LINE2":"2 45224  53.0360 231.8414 0008986 338.4078  21.6819 16.13236821130007","INCLINATION":"53.0360","MEAN_ANOMALY":"21.6819","SEMIMAJOR_AXIS":"6616.116","PERIAPSIS":"232.035","OBJECT_ID":"2020-012AY","EPHEMERIS_TYPE":"0","MEAN_MOTION_DOT":"0.03213816","BSTAR":"0.00339800000000","NORAD_CAT_ID":"45224"},{"ELEMENT_SET_NO":"999","ECCENTRICITY":"0.00022840","APOAPSIS":"548.684","GP_ID":"205443154","EPOCH":"2022-06-05T22:03:41.927328","CENTER_NAME":"EARTH","COUNTRY_CODE":"US","ARG_OF_PERICENTER":"47.0437","TIME_SYSTEM":"UTC","SITE":"AFETR","OBJECT_NAME":"STARLINK-1215","RA_OF_ASC_NODE":"49.2148","OBJECT_TYPE":"PAYLOAD","CLASSIFICATION_TYPE":"U","PERIOD":"95.590","LAUNCH_DATE":"2020-02-17","REF_FRAME":"TEME","FILE":"3482995","RCS_SIZE":"LARGE","REV_AT_EPOCH":"12844","MEAN_MOTION_DDOT":"0.0000000000000","INCLINATION":"53.0552","TLE_LINE2":"2 45225  53.0552  49.2148 0002284  47.0437 313.0743 15.06436438128449","DECAY_DATE":null,"TLE_LINE1":"1 45225U 20012AZ  22156.91923527 -.00008430  00000-0 -54713-3 0  9997","MEAN_MOTION":"15.06436438","MEAN_ELEMENT_THEORY":"SGP4","OBJECT_ID":"2020-012AZ","PERIAPSIS":"545.520","SEMIMAJOR_AXIS":"6925.237","MEAN_ANOMALY":"313.0743","NORAD_CAT_ID":"45225","BSTAR":"-0.00054713000000","EPHEMERIS_TYPE":"0","MEAN_MOTION_DOT":"-0.00008430"},{"NORAD_CAT_ID":"45226","BSTAR":"0.00007607200000","MEAN_MOTION_DOT":"0.00000852","EPHEMERIS_TYPE":"0","SEMIMAJOR_AXIS":"6925.343","MEAN_ANOMALY":"289.5028","PERIAPSIS":"546.082","OBJECT_ID":"2020-012BA","DECAY_DATE":null,"MEAN_MOTION":"15.06401864","TLE_LINE1":"1 45226U 20012BA  22156.66122334  .00000852  00000-0  76072-4 0  9998","MEAN_ELEMENT_THEORY":"SGP4","INCLINATION":"53.0551","TLE_LINE2":"2 45226  53.0551  50.3824 0001626  70.6137 289.5028 15.06401864128360","FILE":"3482995","RCS_SIZE":"LARGE","REV_AT_EPOCH":"12836","MEAN_MOTION_DDOT":"0.0000000000000","PERIOD":"95.592","LAUNCH_DATE":"2020-02-17","REF_FRAME":"TEME","OBJECT_NAME":"STARLINK-1217","OBJECT_TYPE":"PAYLOAD","RA_OF_ASC_NODE":"50.3824","CLASSIFICATION_TYPE":"U","TIME_SYSTEM":"UTC","SITE":"AFETR","ARG_OF_PERICENTER":"70.6137","CENTER_NAME":"EARTH","COUNTRY_CODE":"US","EPOCH":"2022-06-05T15:52:09.696576","APOAPSIS":"548.334","ECCENTRICITY":"0.00016260","GP_ID":"205443404","ELEMENT_SET_NO":"999"}];
